CCSDS_OMM_VERS = 2.0
CREATION_DATE  = 
ORIGINATOR     = 

OBJECT_NAME    = STARLINK-37079
OBJECT_ID      = 2026-050V
CENTER_NAME    = EARTH
REF_FRAME      = TEME
TIME_SYSTEM    = UTC
MEAN_ELEMENT_THEORY = SGP/SGP4

EPOCH          = 2026-03-26T10:16:05.572992
MEAN_MOTION    = 15.81131309
ECCENTRICITY   = .0000698
INCLINATION    = 53.1599
RA_OF_ASC_NODE = 197.7885
ARG_OF_PERICENTER = 334.9692
MEAN_ANOMALY   = 25.1297

EPHEMERIS_TYPE = 0
CLASSIFICATION_TYPE = U
NORAD_CAT_ID   = 68186
ELEMENT_SET_NO = 999
REV_AT_EPOCH   = 312
BSTAR          = .2555E-2
MEAN_MOTION_DOT = .543074E-2
MEAN_MOTION_DDOT = 0

CCSDS_OMM_VERS = 2.0
CREATION_DATE  = 
ORIGINATOR     = 

OBJECT_NAME    = STARLINK-37006
OBJECT_ID      = 2026-050W
CENTER_NAME    = EARTH
REF_FRAME      = TEME
TIME_SYSTEM    = UTC
MEAN_ELEMENT_THEORY = SGP/SGP4

EPOCH          = 2026-03-26T11:46:02.663040
MEAN_MOTION    = 15.80935177
ECCENTRICITY   = .0000727
INCLINATION    = 53.1598
RA_OF_ASC_NODE = 197.4673
ARG_OF_PERICENTER = 94.9860
MEAN_ANOMALY   = 265.1245

EPHEMERIS_TYPE = 0
CLASSIFICATION_TYPE = U
NORAD_CAT_ID   = 68187
ELEMENT_SET_NO = 999
REV_AT_EPOCH   = 313
BSTAR          = .13719E-2
MEAN_MOTION_DOT = .279825E-2
MEAN_MOTION_DDOT = 0

CCSDS_OMM_VERS = 2.0
CREATION_DATE  = 
ORIGINATOR     = 

OBJECT_NAME    = STARLINK-36340
OBJECT_ID      = 2026-050X
CENTER_NAME    = EARTH
REF_FRAME      = TEME
TIME_SYSTEM    = UTC
MEAN_ELEMENT_THEORY = SGP/SGP4

EPOCH          = 2026-03-26T11:44:57.914016
MEAN_MOTION    = 15.80897448
ECCENTRICITY   = .0001088
INCLINATION    = 53.1592
RA_OF_ASC_NODE = 197.4613
ARG_OF_PERICENTER = 91.7626
MEAN_ANOMALY   = 268.3521

EPHEMERIS_TYPE = 0
CLASSIFICATION_TYPE = U
NORAD_CAT_ID   = 68188
ELEMENT_SET_NO = 999
REV_AT_EPOCH   = 303
BSTAR          = .92012E-3
MEAN_MOTION_DOT = .185054E-2
MEAN_MOTION_DDOT = 0

CCSDS_OMM_VERS = 2.0
CREATION_DATE  = 
ORIGINATOR     = 

OBJECT_NAME    = STARLINK-36305
OBJECT_ID      = 2026-050Y
CENTER_NAME    = EARTH
REF_FRAME      = TEME
TIME_SYSTEM    = UTC
MEAN_ELEMENT_THEORY = SGP/SGP4

EPOCH          = 2026-03-26T11:43:52.946400
MEAN_MOTION    = 15.80931048
ECCENTRICITY   = .0001307
INCLINATION    = 53.1591
RA_OF_ASC_NODE = 197.4565
ARG_OF_PERICENTER = 127.7825
MEAN_ANOMALY   = 232.3316

EPHEMERIS_TYPE = 0
CLASSIFICATION_TYPE = U
NORAD_CAT_ID   = 68189
ELEMENT_SET_NO = 999
REV_AT_EPOCH   = 303
BSTAR          = .10941E-2
MEAN_MOTION_DOT = .221455E-2
MEAN_MOTION_DDOT = 0

CCSDS_OMM_VERS = 2.0
CREATION_DATE  = 
ORIGINATOR     = 

OBJECT_NAME    = STARLINK-37071
OBJECT_ID      = 2026-050Z
CENTER_NAME    = EARTH
REF_FRAME      = TEME
TIME_SYSTEM    = UTC
MEAN_ELEMENT_THEORY = SGP/SGP4

EPOCH          = 2026-03-26T11:41:43.323072
MEAN_MOTION    = 15.80925019
ECCENTRICITY   = .0001043
INCLINATION    = 53.1592
RA_OF_ASC_NODE = 197.4463
ARG_OF_PERICENTER = 108.7934
MEAN_ANOMALY   = 251.3202

EPHEMERIS_TYPE = 0
CLASSIFICATION_TYPE = U
NORAD_CAT_ID   = 68190
ELEMENT_SET_NO = 999
REV_AT_EPOCH   = 313
BSTAR          = .10077E-2
MEAN_MOTION_DOT = .203428E-2
MEAN_MOTION_DDOT = 0

CCSDS_OMM_VERS = 2.0
CREATION_DATE  = 
ORIGINATOR     = 

OBJECT_NAME    = STARLINK-37091
OBJECT_ID      = 2026-050AA
CENTER_NAME    = EARTH
REF_FRAME      = TEME
TIME_SYSTEM    = UTC
MEAN_ELEMENT_THEORY = SGP/SGP4

EPOCH          = 2026-03-26T11:40:38.630208
MEAN_MOTION    = 15.80936201
ECCENTRICITY   = .0000863
INCLINATION    = 53.1591
RA_OF_ASC_NODE = 197.4409
ARG_OF_PERICENTER = 74.1490
MEAN_ANOMALY   = 285.9628

EPHEMERIS_TYPE = 0
CLASSIFICATION_TYPE = U
NORAD_CAT_ID   = 68191
ELEMENT_SET_NO = 999
REV_AT_EPOCH   = 313
BSTAR          = .13674E-2
MEAN_MOTION_DOT = .2789E-2
MEAN_MOTION_DDOT = 0

CCSDS_OMM_VERS = 2.0
CREATION_DATE  = 
ORIGINATOR     = 

OBJECT_NAME    = STARLINK-37098
OBJECT_ID      = 2026-050AB
CENTER_NAME    = EARTH
REF_FRAME      = TEME
TIME_SYSTEM    = UTC
MEAN_ELEMENT_THEORY = SGP/SGP4

EPOCH          = 2026-03-26T11:39:33.842304
MEAN_MOTION    = 15.80922149
ECCENTRICITY   = .0001188
INCLINATION    = 53.1596
RA_OF_ASC_NODE = 197.4364
ARG_OF_PERICENTER = 88.4217
MEAN_ANOMALY   = 271.6941

EPHEMERIS_TYPE = 0
CLASSIFICATION_TYPE = U
NORAD_CAT_ID   = 68192
ELEMENT_SET_NO = 999
REV_AT_EPOCH   = 313
BSTAR          = .10517E-2
MEAN_MOTION_DOT = .212542E-2
MEAN_MOTION_DDOT = 0

CCSDS_OMM_VERS = 2.0
CREATION_DATE  = 
ORIGINATOR     = 

OBJECT_NAME    = STARLINK-37090
OBJECT_ID      = 2026-050AC
CENTER_NAME    = EARTH
REF_FRAME      = TEME
TIME_SYSTEM    = UTC
MEAN_ELEMENT_THEORY = SGP/SGP4

EPOCH          = 2026-03-26T07:04:17.762592
MEAN_MOTION    = 15.81143737
ECCENTRICITY   = .0001057
INCLINATION    = 53.1590
RA_OF_ASC_NODE = 198.3760
ARG_OF_PERICENTER = 203.7291
MEAN_ANOMALY   = 156.3683

EPHEMERIS_TYPE = 0
CLASSIFICATION_TYPE = U
NORAD_CAT_ID   = 68193
ELEMENT_SET_NO = 999
REV_AT_EPOCH   = 310
BSTAR          = .29197E-2
MEAN_MOTION_DOT = .627219E-2
MEAN_MOTION_DDOT = 0

CCSDS_OMM_VERS = 2.0
CREATION_DATE  = 
ORIGINATOR     = 

OBJECT_NAME    = STARLINK-37093
OBJECT_ID      = 2026-050AD
CENTER_NAME    = EARTH
REF_FRAME      = TEME
TIME_SYSTEM    = UTC
MEAN_ELEMENT_THEORY = SGP/SGP4

EPOCH          = 2026-03-26T11:42:48.294144
MEAN_MOTION    = 15.80924461
ECCENTRICITY   = .0001252
INCLINATION    = 53.1595
RA_OF_ASC_NODE = 197.4506
ARG_OF_PERICENTER = 73.0182
MEAN_ANOMALY   = 287.0977

EPHEMERIS_TYPE = 0
CLASSIFICATION_TYPE = U
NORAD_CAT_ID   = 68194
ELEMENT_SET_NO = 999
REV_AT_EPOCH   = 313
BSTAR          = .10952E-2
MEAN_MOTION_DOT = .221614E-2
MEAN_MOTION_DDOT = 0

CCSDS_OMM_VERS = 2.0
CREATION_DATE  = 
ORIGINATOR     = 

OBJECT_NAME    = STARLINK-37058
OBJECT_ID      = 2026-050AE
CENTER_NAME    = EARTH
REF_FRAME      = TEME
TIME_SYSTEM    = UTC
MEAN_ELEMENT_THEORY = SGP/SGP4

EPOCH          = 2026-03-26T11:38:28.950720
MEAN_MOTION    = 15.80923496
ECCENTRICITY   = .0000976
INCLINATION    = 53.1593
RA_OF_ASC_NODE = 197.4305
ARG_OF_PERICENTER = 90.1707
MEAN_ANOMALY   = 269.9428

EPHEMERIS_TYPE = 0
CLASSIFICATION_TYPE = U
NORAD_CAT_ID   = 68195
ELEMENT_SET_NO = 999
REV_AT_EPOCH   = 157
BSTAR          = .11133E-2
MEAN_MOTION_DOT = .225394E-2
MEAN_MOTION_DDOT = 0

CCSDS_OMM_VERS = 2.0
CREATION_DATE  = 
ORIGINATOR     = 

OBJECT_NAME    = YAOGAN-50 02
OBJECT_ID      = 2026-051A
CENTER_NAME    = EARTH
REF_FRAME      = TEME
TIME_SYSTEM    = UTC
MEAN_ELEMENT_THEORY = SGP/SGP4

EPOCH          = 2026-03-26T11:23:46.684896
MEAN_MOTION    = 13.83268241
ECCENTRICITY   = .0001026
INCLINATION    = 141.9870
RA_OF_ASC_NODE = 288.1542
ARG_OF_PERICENTER = 242.4961
MEAN_ANOMALY   = 117.5655

EPHEMERIS_TYPE = 0
CLASSIFICATION_TYPE = U
NORAD_CAT_ID   = 68196
ELEMENT_SET_NO = 999
REV_AT_EPOCH   = 153
BSTAR          = .7233E-4
MEAN_MOTION_DOT = .266E-5
MEAN_MOTION_DDOT = 0

CCSDS_OMM_VERS = 2.0
CREATION_DATE  = 
ORIGINATOR     = 

OBJECT_NAME    = CZ-6A R/B
OBJECT_ID      = 2026-051B
CENTER_NAME    = EARTH
REF_FRAME      = TEME
TIME_SYSTEM    = UTC
MEAN_ELEMENT_THEORY = SGP/SGP4

EPOCH          = 2026-03-26T10:41:53.060064
MEAN_MOTION    = 14.56367185
ECCENTRICITY   = .0186333
INCLINATION    = 142.0321
RA_OF_ASC_NODE = 293.4840
ARG_OF_PERICENTER = 171.2650
MEAN_ANOMALY   = 189.1378

EPHEMERIS_TYPE = 0
CLASSIFICATION_TYPE = U
NORAD_CAT_ID   = 68197
ELEMENT_SET_NO = 999
REV_AT_EPOCH   = 160
BSTAR          = .12005E-3
MEAN_MOTION_DOT = .982E-5
MEAN_MOTION_DDOT = 0

