STARLINK-37079          
1 68186U 26050V   26085.42784228  .00543074  00000+0  25550-2 0  9991
2 68186  53.1599 197.7885 0000698 334.9692  25.1297 15.81131309  3121
STARLINK-37006          
1 68187U 26050W   26085.49030860  .00279825  00000+0  13719-2 0  9999
2 68187  53.1598 197.4673 0000727  94.9860 265.1245 15.80935177  3130
STARLINK-36340          
1 68188U 26050X   26085.48955919  .00185054  00000+0  92012-3 0  9994
2 68188  53.1592 197.4613 0001088  91.7626 268.3521 15.80897448  3034
STARLINK-36305          
1 68189U 26050Y   26085.48880725  .00221455  00000+0  10941-2 0  9993
2 68189  53.1591 197.4565 0001307 127.7825 232.3316 15.80931048  3033
STARLINK-37071          
1 68190U 26050Z   26085.48730698  .00203428  00000+0  10077-2 0  9998
2 68190  53.1592 197.4463 0001043 108.7934 251.3202 15.80925019  3137
STARLINK-37091          
1 68191U 26050AA  26085.48655822  .00278900  00000+0  13674-2 0  9997
2 68191  53.1591 197.4409 0000863  74.1490 285.9628 15.80936201  3139
STARLINK-37098          
1 68192U 26050AB  26085.48580836  .00212542  00000+0  10517-2 0  9993
2 68192  53.1596 197.4364 0001188  88.4217 271.6941 15.80922149  3137
STARLINK-37090          
1 68193U 26050AC  26085.29465003  .00627219  00000+0  29197-2 0  9996
2 68193  53.1590 198.3760 0001057 203.7291 156.3683 15.81143737  3109
STARLINK-37093          
1 68194U 26050AD  26085.48805896  .00221614  00000+0  10952-2 0  9994
2 68194  53.1595 197.4506 0001252  73.0182 287.0977 15.80924461  3138
STARLINK-37058          
1 68195U 26050AE  26085.48505730  .00225394  00000+0  11133-2 0  9990
2 68195  53.1593 197.4305 0000976  90.1707 269.9428 15.80923496  1572
YAOGAN-50 02            
1 68196U 26051A   26085.47484589  .00000266  00000+0  72330-4 0  9996
2 68196 141.9870 288.1542 0001026 242.4961 117.5655 13.83268241  1536
CZ-6A R/B               
1 68197U 26051B   26085.44575301  .00000982  00000+0  12005-3 0  9994
2 68197 142.0321 293.4840 0186333 171.2650 189.1378 14.56367185  1602
